,username,country,province,city,phone_terminal,content
0,蟾师的金钱世界,中国,天津,天津,微博网页版,我认识的一个人，去年底手里有几百万，我劝他别买大额存单了，跟我买股票基金吧，现在点位绝对不高，持有两三年，大概率不会亏钱，但他不听执意去买三年的大额存单，我只能感叹，现在他的存单第一年还没到，股市就转向了，咋整，假如年真拿股市承载通胀，他这大额存单直接白玩，按照价值核算，是全文
1,童以安,中国,广东,佛山,iPhone 14 Plus,社科院研究所建议发行万亿特别国债，支持股票发展，目前股票势头持续向好，应该持续注入长期稳定资金，提升资本市场的稳定，助力股市长期稳定发展增加保险公司投资股票的比例，必要时可以发行万亿特别国债，设计保险基准金，长期稳定的为股市发展保驾护航从形式上来看，股市未来一定是一个长全文
2,故里鸥鹭眷云停,中国,广东,韶关,iPhone 14 Pro,股今天缩量收阳，市场家下跌，家上涨，上涨的比例是，理论上应的人赚钱，如果你没有赚钱，那一定是昨天没听劝告追高了，比如昨天的科创芯片半导体一追涨，今天调整，别人的股票涨你手中的半导体不涨，当然只能看别人赚钱了！从今天股的走势来看，还是相对比较平稳的，当前指数高低点全文
3,仙子葡萄桃,中国,广西,崇左,,中金今天进场买股票了！今天是首次使用互换便利获得资金买入股票今天算第一天建仓，哈哈后面继续增持你观察到没，人家亲儿子建仓的时候没有大涨吧？这就是底层逻辑思维，亲儿子建仓肯定也是便宜筹码，只是比郭嘉队自己（爸爸）要贵点作为普通投资者个人，你和中金保持同步加仓，也不算不错的全文
4,赔惨了的股民廷加,中国,北京,北京,HarmonyOS设备,星期二账户净值元，浮盈元今天比亚迪是我持仓中唯一下跌的股票昨天还说它可能成为汽车股上涨龙头呢今天光伏表现好我认真准备买连城数控，拉普拉斯这是个人记录不是诱导投资
5,孔童财投,中国,北京,北京,,#股票#明天继续狂欢！晚安奋斗的青春晚安奋斗的铁粉！
6,赵如意随心记,中国,陕西,榆林,iPhone客户端,昨晚梦见我的股票突然间涨到了多万，啊，原来这是真事啊，可惜不是我的笑笑
7,彬哥看盘,中国,北京,北京,微博 weibo.com,发布了头条文章：《收盘：科技股的调整已经不可逆转》#微博股票##股##新浪财经#收盘：科技股的调整已经不可逆转
8,天津--刘军,中国,上海,上海,微博视频号,收评：板块轮动，反弹延续#微博股票#股票分析#今日看盘#天津刘军的微博视频
9,WU2024168,中国,安徽,合肥,股票超话,股票你什么时候才能稳定盈利，标准只有一个，就是那天你不在听信外在小道消息，不再去预测涨跌，只是忠于你的交易系统，耐心等待你最熟悉的交易信号，说明你就可以稳定盈利了，他靠的不是多高大上的方法，而是耐心和执行力复盘买在无人问津卖在人声鼎沸，清仓北交所，等待下一波龙头
10,parce-l,中国,北京,北京,iPhone客户端,早睡早睡明天揭幕战+今天打板买了两支股票一个期待一个刺激必红！
11,打板一哥老谭,中国,广东,广州,,华为正式发布纯血鸿蒙系统，成为与苹果系统和谷歌安卓系统鼎足并立的第三大操作系统华为概念和华为支付方向的主要股票周二大幅分化调整，短线自主可控的利好兑现，下一个关注华为的方向应放在半导体芯片领域，华为相关概念遇回调应有反复活跃机会机会，此外华为急迫进军的是人工全文
12,ii浑浑噩噩,中国,湖北,武汉,iPhone客户端,重温斗鱼直播时满是兴奋的听歌，现在换平台了揣手，陈一发这狗崽子还能播多久？听说股票亏了二白多万，哈哈哈🤣
13,小马每天都在开心,中国,安徽,安庆,iPhone客户端,翻到大学时期做的小组作业，当时做的比亚迪盈利能力分析，我最后分析的结果是如果不调整经营模式，比亚迪公司会在年内面临公司破产的风险😅比这个分析结论更让我难受的是，当时整个小组选题是我选的，是我做的，上讲台展示是我讲的最后整个小组只有我没有买比亚迪的股票，当时股价，今天全文
14,七休-,中国,湖南,长沙,东方财富手机版,#东方财富##股票#【中药材重磅政策！事关穿山甲、羚羊角、熊胆粉、冬虫夏草……】濒危药材，指被列入《国家重点保护野生动物名录》《国家重点保护野生植物名录》等的动植物种濒危药材在临床上一直用于急症、重症和慢性病的治疗，因具有疗效确切、起效快、作用强等特点月日，国家药监局与国家中全文
15,馨馨有好股,中国,广东,佛山,,正准备入睡！今晚证券市场的消息不得了，必须和大家分享一下，特别是其中个增量资金政策，再次给股传递积极信号！慢牛行情正在酝酿，无需怀疑！你知道为什么吗？另外两个科技风口有望继续爆发！还在对股耿耿于怀，操作方向上不明确的朋友，务必来看看！认真看完，相信让你茅塞顿开！具体如下：、全文
16,遇见兔子那一年,中国,香港,,iPhone客户端,笑死我了@鲸粪年还幼儿园手工过家家怎么现在一开口就是国会股票的
17,榴莲是长颈鹿,中国,北京,北京,一加12 十年旗舰,垃圾活该你一天股票亏，七天无理由退个货拖了我一天，等到最后一天就无法退货了是吗
18,仙子葡萄桃,中国,广西,崇左,,有公司发套套了！刚在复盘正在对比港股与股的中芯国际的估值突然看到一个减持，易方达减持中芯了中芯国际公告，易方达上证科创板成份交易型开放式指数证券投资基金减持公司境内股票万股减持后，易方达仍持有公司境内股票万股，占公司境内总股本的，占公司总股本的哈全文
19,MentholKola_,中国,安徽,合肥,iPhone客户端,看了一晚上的财报和股票然后食欲大发拉着朋友出去大吃了一顿…回来冷静了一下已经在反悔了…明天我要液断…
20,结果和我想得不一样,中国,浙江,台州,OPPO Reno9 5G,上面播着珠光宝气下面广告打着珠帘玉幕其实一直分不清珠光宝气男女主到底是谁笑分不清也不妨碍剧情好看除了石泰川刚出现那几集在宝仑公司和宋子凌那几个做那个虚拟股票游戏那段我每次都跳过其他剧情我基本都不会快进这剧老年组真的好绝
21,InfusingLove,中国,广东,深圳,iPhone客户端,有公司发套套了！刚在复盘正在对比港股与股的中芯国际的估值突然看到一个减持，易方达减持中芯了中芯国际公告，易方达上证科创板成份交易型开放式指数证券投资基金减持公司境内股票万股减持后，易方达仍持有公司境内股票万股，占公司境内总股本的，占公司总股本的哈全文
22,想不到名字德猪猪,中国,江西,上饶,股票分析超话,四川长虹，希望一路长虹！！！股票分析偷偷来微博分享一下吧#股##股#股票分析#股票分析#
23,陈志豪财经,中国,广东,韶关,热门股评师iPhone客户端,短线差价的人可以是长期持有者我虽然每天都会做很多次差价，但是很少有股票持有不到三年的任何一个股票，一旦买入，在股价翻倍之前，我至少每天持有以上的仓位即使是月日开盘瞬间仓位减到成，收盘之前也回补到三成我为什么每天都要做差价？因为值得和上全文
24,涨涨学者,中国,北京,北京,,#什么时候上#抓紧时间上吧股票都套住了泪
25,厚恩投资张延昆,中国,北京,北京,,《有朋友问如何了解企业基本面？》#股##股市##价值投资#我回答说：首先我们要知道什么是基本面，你要想了解企业基本面，你得知道基本面的定义基础面是股票术语，基本面即公司的经营业绩、盈利能力和成长性，是影响公司长期股价的决定性因素，如何了解这个事就挺宏大的，只能是告诉你一步一步的全文
26,湖南颖姐,中国,广东,,今日看盘超话,【突发利好！！！】明天剑指点明天第一目标点，第二目标点科技、鸿蒙、军工类股票今天大幅调整，明天在此重大利好催生下，有望重拾升势而且今晚不少公司发布增持公告，乐观点，在极度亢奋情况下，有可能向点进发！冲呀！大拳头拳头拳头拳头祝友友们明天财源滚全文
27,InfusingLove,中国,广东,深圳,iPhone客户端,月日星期二热门股抢先点评士兰微：反核封板，继续格局中文在线：缩量封板，还有高度润和软件：强势制裁，千万别看双成药业：七连成功，断开逃离国民技术：逐渐变强，开始加速中油资本：出现分歧，不可盲目中芯国际：跳空十字，方向不定领益智造：沿着五日，千万别破台基股份：勉强全文
28,北京胡梅郎-山郎,中国,江西,新余,iPhone 12 Pro Max,#山郎收评#两市涨跌幅超过、的个股比分别为、，个股多头继续占势，涨跌幅超过的个股数占比约，沪深科创北强势震荡、、、、上证指数黄线高于白线震荡收红贵州茅台等拉升抵寒武纪银行等回调两市成交降至万亿#股票##山郎收评#
29,美丽的大小宝贝,中国,江西,宜春,Android客户端,愿我和老公的感情越来越好，我们之间的问题圆满解决愿我们能携手走完一生，白头偕老🙏🙏🙏也祝愿我老公身体健康，一切顺利，财富自由，股票涨涨涨🙏🙏🙏我们全家人平平安安健健康康🙏🙏🙏
30,机器人交易mai600088,中国,四川,成都,Android,吃的满嘴是油#股票#机器人交易的微博视频
31,快乐投资人CFP,中国,河南,漯河,东方财富手机版,#东方财富##股票#【社科院金融所报告建议：发行万亿元特别国债支持设立股市平准基金】报告建议中提到，提升资本市场内在稳定性社科院金融所报告建议：发行万亿元特别国债支持设立股市平准基金(来自东方财富网@东方财富网)
32,财神爱主线,中国,江苏,苏州,微博网页版,【中芯国际：易方达减持万股减持后持有公司股票】中芯国际公告，易方达上证科创板成份交易型开放式指数证券投资基金减持公司境内股票万股减持后，易方达仍持有公司境内股票万股，占公司境内总股本的，占公司总股本的（交易所
33,不是神话168,中国,北京,北京,股票超话,社科院金融所报告建议：发行万亿元特别国债支持设立股市平准基金股票#股#
34,财富船长老陈,中国,天津,天津,股票超话,今天的龙虎榜惨不忍睹，除了中文在线和天龙集团代表的游资抱团把筹码买干净了，其他各个板块全部遭受游资和机构的大举出货，明天接下来仍然是混沌期，游资大举跑路带来的筹码断层看看哪个核心标的家人们能接得住，中文在线和天龙集团我不建议大家去追高，因为这板块的逻辑本身是高低切换，如果高位的全文
35,三浪三99,中国,广东,广州,,很多人认同牛市最好的策略就是持股，而且大部分在这行的成功人士靠的就是持股但不少人还是拿不住股，然后看着曾经手中股一骑绝尘而去一般来说牛市拿不住股有以下几个原因做趋势的信念不够足，思想在短线与做趋势之间摇摆，那天真发现了似乎有高抛机会，就有可能脱手而出对手中股票信心不足全文
36,擒牛小鳄鱼,中国,广东,韶关,热门股评师iPhone 15 Pro Max,股票如果出现“曙光初现”情况，买入往往能够大赚若要涉足股市，选择股票时应秉持非强势不入的原则，因为强势股通常能迅速攀升一旦遇见呈现出“曙光初现”态势的股票，我会毫不犹豫地迅速入场，因为这类股票往往能迅速增值，让我们的资金在短时间内实现显著增长那么，究竟什么样的股票走势可称为全文
37,犇牛攀峰,中国,辽宁,大连,微博视频号,今日大盘围绕点下方震荡，这个位置小时级别震荡太久了，明日必须要直接突破，需要证券、地产、白酒等滞涨板块配合拉升指数对于板块来讲，目前进入分化补涨期，涨幅巨大的科技类股票有回调需要，此类板块需要格外小心犇牛攀峰的微博视频
38,香甜糖烤栗子,新加坡,新加坡,,iPhone 11,今天股票才回血块跪了跪了
39,将军6号,中国,广东,韶关,iPhone客户端,关于回购注销这事情，有些年轻的读者不太清楚以前发生的事情！想起股十几年前当时很流行动不动分红➕送股！比如每股分红元再送股这类的，基本当时只要一出这种方式，股价就会打骨折，但股票立马第二天就会涨停，搞到当时阿猫阿狗都来学送股方式博涨停，股本由几千万股本变成几个亿、几十亿或者全文
40,用户7299066887,中国,福建,,绿洲APP,股票，还是不要太在意回来的路上，看着妈妈不时拿着手机盯盘，神情有点严肃，瞄了一眼她手机，自选的怎么那么多，看的应该很乱很费劲吧吃午饭时，我和她说，妈～我们还是不要太把时间放在这个上面，差不多就不要炒咯，好像没有多好还挺影响情绪的总会有可惜，后悔的念头不时冒出这段时间不在全文
41,海旭6627,中国,新疆,昌吉回族自治州,iPhone客户端,直线拉升……明天又是一个好天气来#股票#
42,147蚊帐V,中国,广东,广州,OPPO R9s,我看空英伟达股票！
43,智慧招财女,中国,广东,佛山,,夜已深，关于明日股的行情，我再强调几句，防止有人没有看到：、今天晚上最大的消息就是，社科院金融所报告建议：发行万亿元特别国债支持设立股市平准基金、何为平准基金？就是国家队亲自下场买股票，以确保股市平稳健康运行此消息虽然只是建议，但先吹吹风，把预期拉满、炒股，炒的全文
44,147蚊帐V,中国,广东,广州,OPPO R9s,我看多蔚来股票！
45,橙子投资策略,中国,广西,南宁,微博网页版,今晚有思路，想了下，感觉明天其实节点上，如果充分的分歧话，是有大分歧切到好东西的#股票##股#
46,焱哥论市,中国,广东,佛山,iPhone 14 Pro,就在刚刚，一条消息振奋人心，中金公司发布公告称，公司已经使用互换便利获得的资金买入了股票了，而且公司承诺将继续使用互换便利获得的资金增持股票，这是重大利好，市场上现在增量资金真的很多，并且这些资金的成本非常低，有了资金的推动，现在股没有理由不涨起来了吧
47,老陈有牛股,中国,广东,深圳,股票超话,绩优高成长科技龙头，科技股三季度净利润增速排名榜出炉！半导体概念多家上榜增速排名：全志科技、海光信息、北方华创、瑞芯微、炬芯科技、韦尔股份等等瑞芯微：三季度预增~北方华创：三季度业绩预增~韦尔股份：三季度预增~炬芯科技：三季度净利润全文
48,Uncommon-Profits,中国,云南,昆明,HUAWEI P40 5G,关于铜矿涨价逻辑的梳理中国方面：特朗普上任，关税核心是可能对中国征收的额外关税，并且征收针对某些地区或行业的“特定税”，如对产自墨西哥的中国汽车加征关税等对于出口潜在的下行压力，我方很有可能启动基建扩大内需据中金的报告测算，在美国加征关税情全文
49,神算鬼谷子V,中国,广东,广州,热门博主iPhone客户端,夜已深，关于明日股的行情，我再强调几句，防止有人没有看到：、今天晚上最大的消息就是，社科院金融所报告建议：发行万亿元特别国债支持设立股市平准基金、何为平准基金？就是国家队亲自下场买股票，以确保股市平稳健康运行此消息虽然只是建议，但先吹吹风，把预期拉满、炒股，炒的全文
50,不热心市民黄女士,中国,浙江,宁波,iPhone客户端,股票📈📈📈
51,肤白貌美小肥甜心公主,中国,吉林,通化,iPhone 15 Pro,陈昊宇如果你是一支股票爱慕
52,短银辉煌通ZZY23,中国,上海,上海,微博网页版,“基本思路：提前发现龙虎榜提前跟进，（时间取胜）分仓十个至二十个（减轻心理负担）看盘仅限龙虎包围圈中的落后分子，不看先进分子（未位淘汰）左手持股票，右手举把刀，跟着五线走，不走就砍掉”收到，按老师的方法执行拳头拳头拳头
53,千牛谷,中国,河南,开封,iPhone 11,月日攻略（严禁他人据此买卖股票）、综艺股份、深康佳、华东重机：高开才能买入、智度股份：开盘在之上，才能买入（这是私人计划，不是荐股，不是投资建议，严禁他人据此买卖股票）
54,无限次博弈,中国,江苏,苏州,微博网页版,#中芯国际#公告，易方达上证科创板成份投资基金减持公司境内股票万股减持后，易方达仍占公司境内总股本的这以后再减仓就不用公告了股比港股贵，还是股的韭菜嫩
55,淘县-第一买点,中国,江西,宜春,iPhone 15,#股票#
56,一起喝可乐哇c,中国,广东,广州,iPhone 13,闲来无事看了一下股票，看完直接懵逼二哈#股票#
57,你的名字_我的记忆,中国,安徽,合肥,HUAWEI P50,炒股炒的就是仓位管理如果你选择的股票不会退市，而且能保证自己的资金链永远不会断裂那么，即使你从历史最高点买入，通过有效的仓位管理，一路跌到历史最低位，也不会大亏，甚至只要一有反弹，你可能立即就会获利炒股炒的其实是仓位管理和资金链，你能够保证自己的资金链在股价全文
58,大闻的后花园,中国,辽宁,,iPhone 15 Pro Max,观点准不准，不是你一个人说了算而是直播间里，上百个老哥们铁粉群里，小个兄弟姐妹见证着抖音又重新开播了，聊半个小时再睡～害羞害羞股票$欧菲光$$四川长虹$$常山北明$
59,无色受想行识,中国,海南,海口,HUAWEI Mate 30,只有当物有所值时，回购股票才是维护及提升股东权益
60,老金短线跟庄,中国,广东,佛山,,周二股上市公司重要公告精选以下均是利好消息华康医疗中标亿元重庆医科大项目拓维信息与蚂蚁数科达成战略合作加速移动应用鸿蒙化广电运通：中标北部湾数字人民币服务平台项目致远互联中标天津滨海农商银行办公平台项目海亮股份：控股股东拟以亿至亿元增持公司股份全文
61,不想上班的第二年,中国,福建,宁德,iPhone客户端,天气就像股票一样，周六前都是一直涨，周六是个转折点，周六过后就一直跌，但是没用，月肯定还会出现高温，就像前两年一样
62,365-厦门大雨,中国,福建,南平,雨哥看盘超话,月日盘后，中芯国际发布公告称，易方达上证科创板于月日减持公司境内股票万股减持后，该仍持有公司境内股票万股，占公司境内总股本的，占公司总股本的比例为
63,读史狗,中国,江苏,南京,Android,#纯血鸿蒙#带动华为概念？鸿蒙概念？国产软件自主化概念？#股票#股
64,小T07712,中国,广东,深圳,微博网页版,理肤泉面膜修复霜*面霜对股票的知识，我很贫乏，也没有耐心认真学习，偶尔一学习，基本上把原来明白的那点也弄糊涂了所以，我选择股票，有我的路径：先逼迫有经验的人推荐，在此基础上自己进行价位和成绩的取舍，最后，完全凭直觉拍板，有时候谁的名字好听也是重要理由，这全文
65,开心滚雪球呀,中国,安徽,合肥,基金超话,无论你是做股票还是做基金，在后市中，千万别开超市！别开超市！别开超市！！！只以内即可买一大堆只会影响你的调仓效率！凡是月号果新办开会之前，跟我一起重仓在两只指数上的朋友，国庆节后卖出时，应该都是赚了不少的哈鲜花鲜花鲜花祝朋友们在后面第二波行情里继续发财💰全文
66,小目标2025,中国,湖南,,iPhone客户端,→→搞不好晚上暴涨
67,幸福快乐潇洒一生,中国,河北,保定,nova 11 SE,买股票就像挑选爱人一样，一定要精挑细选买股票不能有赌博的心理，一锤子买卖一定用投资的心态去选股，要像挑选老伴一样认真假如说你买了之后，让你拿上两三年，你是不是放心呢？把最喜欢的、最优质的股票挑出来，能够放心睡大觉
68,九月是个很好的月份,中国,北京,北京,iPhone 13 Pro,第一支盈利的股票，记录一下虽然不多，但还是卖在了最高位，从最开始的亏损亏损，快半个月了，到现在心态已经有了很大的调整有些事必须得经历，在这种过程中反复的琢磨才会有成长，最重要的还是有人能一直支持自己送花花
69,老陈有牛股,中国,广东,深圳,股票超话,重磅！股市平准基金真的要来了吗？社科院金融所在报告中建议，发行万亿特别国债支持设立股市平准基金，以促进股市市场稳定发展！作为为中国金融发展提供建议和策略的智囊部门，金融所的建议有着重要的参考意义，很有可能会被上面采纳而变成现实！很早之前刘纪鹏教授就曾建议设全文
70,投资越简单越好,中国,北京,北京,微博网页版,越集中投资，业绩越好；越分散投资，业绩越差#财经##股票#
71,Rh_辉哥复盘,中国,江苏,苏州,HUAWEI Mate 60,晚安…明天见！（大跌反核自己手里面股票冲高做）
72,我是赵老哥,中国,江西,,iPhone 12 Pro Max,回顾以往的牛市，会发现有这些规律：牛市期间，有些人把股市当成了赌场，结果输得倾家荡产，连熊市的机会都没了牛市里，每个人都觉得自己是股神，可一旦市场转熊，才发现自己只是个普通的韭菜牛市期间，办公室里的话题总是离不开股票，好像不聊两句股市，就显得自己了牛市全文
73,春风徐莱,中国,湖南,湘西土家族苗族自治州,微博 weibo.com,发布了头条文章：《打板了这只前期超级趋势牛股！》#股票##微博股票##财经头条文章#打板了这只前期超级趋势牛股！
74,黑马月月,中国,吉林,长春,iPhone客户端,今天清了冲高清了宋城演艺对他的印象不太好又怕拿成长线所以清掉了哈哈哈今天开了北方稀土中远海能隆平高科
75,佛系邱小姐,中国,广东,韶关,iPhone 13,猪肉周期要反转了？温氏股份三季度归属股东净利润倍增长，月日，温氏股份公布三季报，前三季度净利润亿元，同比扭亏为盈，营业收入亿，同比增长，温氏股份刚刚发布公告，和农业银行授权的分支机构签署《流动资金借款合同》，借款金额不超过亿元，用以回购股票，生猪主全文
76,北京商报,中国,北京,北京,,【#股票分化将会越来越大#】股行情纵深发展，个股行情必然明显分化，优质公司被多数资金追捧，劣质公司会被不断抛弃，港股化是大势所趋在未来的慢牛走势中，依然难改绩差股不断走弱的命运，投资者不妨利用股市普涨之后的间歇换股操作，抛弃绩差股和问题股，买入优质蓝筹股股市经过普涨和调整，全文
77,实在睡不着熬过粥拉早市去卖吧,中国,宁夏,银川,Android,我是一支亏本的股票父母一直往里面砸钱
78,皮海洲,中国,湖北,黄石,分享按钮,#银行支持证券##银行业#中金公司今日首次使用#互换便利#获得资金买入股票中金公司今日首次使用互换便利获得资金买入股票
79,股道钱潮,中国,黑龙江,哈尔滨,Note 10 Pro,权重板块里，中字头，保险也不错，酿酒，房地产一般#财经﻿##股票##股#股
80,花尔街的蜗牛,中国,四川,遂宁,微博网页版,最近蜗牛激进账户只操作了只股票，月日的顶级上影润和软件（上影战法），月日尾盘放量破线的宜通世纪（高波动战法第二式），月日东田微（上影战法），前面两只都是个交易日吃到了多的大肉，后面一只因为今天科技大跌，怕补跌，下午盘中微利卖出了（其实今天尾盘也只是微跌全文
81,全球财说GF,中国,北京,北京,iPhone 13 mini,#外高桥#外高桥公告称，中国银行拟为公司控股股东外资管公司提供增持上市公司股票的融资支持，贷款额度不超过亿元，专项用于以集中竞价交易方式增持外高桥股股票
82,湘味猫鱼,中国,北京,北京,HUAWEI Mate 30 5G,#朱少醒#静待市场情绪回归#股票#回本只在一瞬间回本的要义是：关键时刻不能不在场
83,婧婷专业打板,中国,广东,广州,,有公司发套套了！刚在复盘正在对比港股与股的中芯国际的估值突然看到一个减持，易方达减持中芯了中芯国际公告，易方达上证科创板成份交易型开放式指数证券投资基金减持公司境内股票万股减持后，易方达仍持有公司境内股票万股，占公司境内总股本的，占公司总股本的全文
84,天边的眷恋_77404,中国,新疆,乌鲁木齐,东方财富手机版,#东方财富##股票#【温氏股份：第三季度净利润亿元同比增长】【温氏股份：第三季度净利润同比增长】温氏股份()月日晚间披露三季报，公司第三季度营业收入为亿元，同比增长；归属于上市公司股东的净利润为亿元，同比增长；基本每股收益元全文
85,湖北大茗堂茶业有限公司,中国,湖北,荆门,nova8 我由我掌镜,基本思路：提前发现龙虎榜提前跟进，（时间取胜）分仓十个至二十个（减轻心理负担）看盘仅限龙虎包围圈中的落后分子，不看先进分子（未位淘汰）左手持股票，右手举把刀，跟着五线走，不走就砍掉
86,割王总剁主,中国,江苏,苏州,nova6 5G自拍大不一样,《亏钱的根源》股票市场，看似风平浪静，实则血雨腥风！亏钱的根本原因是心态有问题，可以这样说“越想赚钱就越会亏钱”，做不到行知合一，为什么每个成功人士说的一句经典语录都是“慢就是快”了心浮气躁就怕失去赚钱的机会就是心态出了问题，管不住手瞎操作结果是赚钱更少或者反而亏钱原因全文
87,我是赵老哥,中国,江西,,iPhone 12 Pro Max,很多人败在股市上，主要是有这几个思维：侥幸心——总觉得自己会是那个幸运儿，忽视了市场风险，一旦遭遇市场调整，便损失惨重赌徒心态——把股市当赌场，总想一把梭哈，结果往往是血本无归，连底裤都不剩追涨杀跌——看见股票涨了就盲目跟进，跌了就恐慌割肉，最后成了庄家的韭菜全文
88,我是赵老哥,中国,江西,,iPhone 12 Pro Max,很多人败在股市上，主要是有这几个思维：侥幸心——总觉得自己会是那个幸运儿，忽视了市场风险，一旦遭遇市场调整，便损失惨重赌徒心态——把股市当赌场，总想一把梭哈，结果往往是血本无归，连底裤都不剩追涨杀跌——看见股票涨了就盲目跟进，跌了就恐慌割肉，最后成了庄家的韭菜全文
89,跟随者LI,中国,上海,上海,iPhone客户端,，元宇宙，低空飞行，固态电池，机器人，华为科技，跨境支付只要做好这里面的股票，其他股票少看，到年就财富自由了！
90,天边的眷恋_77404,中国,新疆,乌鲁木齐,东方财富手机版,#东方财富##股票#【余家股上市公司本周披露并购重组最新公告】截至发稿，据不完全统计，本周包括禾信仪器、金鸿顺、因赛集团、龙源电力、兴民智通、沈阳机床、四川双马、中英科技、一汽解放、科源制药、一汽富维和晶丰明源在内的家股上市公司披露并购重组最新公告东方财富资讯(来自全文
91,猪猪猪笼入水,中国,广东,佛山,,上证指数的编制确实不太合理，它是按照上交所所有股票的总市值来算的，注意是总市值，不是流通市值所以就会出现一种情况，即有些股票刚上市的时候，流通股份少，限售股份多，股价被非理性爆炒，等到限售股陆续解禁的时候股价一泻千里，这些都算在指数的跌幅里随便举个例子，像中石油这样的，从高全文
92,夕夏的梦想,中国,福建,福州,荣耀Play5T,傍晚，周宁叙的书房禁地被某只愤怒的爪子推开“啊啊啊，周宁叙，我老妈居然打电话来骂我，说我的书写得越来越难看了！”周宁叙巍然不动，双眼盯着电脑上的股票线图双宜在书桌前暴暴走“结果骂完了，才发现她根本骂错人了，那本书根本不是我写的！她居然买盗版书看！”双宜继续暴暴走全文
93,天边的眷恋_77404,中国,新疆,乌鲁木齐,东方财富手机版,#东方财富##股票#【【视频回顾】华为原生鸿蒙之夜纯血鸿蒙真的来了！】【视频】华为于月日举办“原生鸿蒙之夜暨华为全场景新品发布会”此次发布会备受瞩目，华为推出全新的纯血鸿蒙系统，纯血鸿蒙已于月日正式开启公测，多数主流应用已完成适配并上架华为应用市场全文
94,叶艾茂,中国,浙江,杭州,微博网页版,各位，今晚叶茂侃市是纯干货，速去阅读，顺手点赞并扩散给身边朋友#股##股市#+#基金股票#（叶艾茂）
95,比-------,中国,北京,北京,iPhone客户端,股票可比恋爱好玩多了刺激多了
96,嘉嘉的第六感,中国,广东,韶关,股票超话,发改委表示：近一半增量政策已出台实施还有一批政策“在路上”看到这些消息，搞的人心里直痒痒，难免有一种冲动虽然说上方有天量的套牢盘，但利好消息不断刺激投资者敏感的神经，谁也不敢保证投资者的热情又被激发起来，就算机构越涨越抛，可散户是人多力量大呀，后后，有许多初生牛犊不怕虎全文
97,股道钱潮,中国,黑龙江,哈尔滨,Note 10 Pro,证券板块的结构目前还是不错的，号被套的朋友，不用担心，大概率会解套的#财经﻿##股票##股#股
98,嘉嘉的第六感,中国,广东,韶关,股票超话,夜已深，关于明日股的行情，我再强调几句，防止有人没有看到：、今天晚上最大的消息就是，社科院金融所报告建议：发行万亿元特别国债支持设立股市平准基金、何为平准基金？就是国家队亲自下场买股票，以确保股市平稳健康运行此消息虽然只是建议，但先吹吹风，把预期拉满、炒股，炒的全文
99,一哥股市论金,中国,广东,韶关,热门财经iPhone客户端,大家晚上好，后续一哥会分享一些活跃板块的强势个股作为参考，大家可以点赞转发多支持赞赞有个股咨询的也可以私聊一哥，一哥也会给出自己的看法，这段时间一哥铁粉也每天在提升，同时也感谢大家对一哥的认可，欢迎早日成为一哥的铁粉，㊗️各位股票长虹，大赚#今日看盘##财经观察官#
100,务必管好你自己,中国,云南,昆明,荣耀 Play4T,谁能想到@鲸粪年还幼儿园手工过家家怎么现在一开口就是国会股票的
101,暴躁你媛姐,中国,四川,绵阳,微博轻享版,股票亏本是有原因的微笑没买长虹！
102,壹釖傳說,中国,江苏,无锡,微博股票超话,经常听说①+制度②涨跌无限制制度是为了保护散户对于②涨跌无限制我认可是保护散户的成份较多但对于①+制度妥是收割散户成份居多所以我还是呼吁中国的股市能实行+制度微博日常#股##今日股##炒股#微博股票无锡
103,仰望阳光777,中国,河南,郑州,东方财富手机版,#东方财富##股票#【应用端爆发！一图看懂相关个股】月日应用端表现强势，传媒方向领涨，中文在线涨停，天龙集团、新华传媒、中广天择等多股涨停综合各机构研报，应用端可分为多个子方向：+大模型方向、+语料、+信创、+图片视频、+游戏、+影视、+医疗、+金融、+电商全文
104,娱乐圈大嘴儿,中国,湖南,长沙,iPhone客户端,++#呼兰开心点#呼兰这段真的要把我笑死，股票大涨直接眉飞色舞，被他称之为人类早期驯服股珍贵影像，真的太贴切了哈哈哈！毕竟这种炒股乐开花的场面太难得，说不定哪天就跌了捏
105,乐游-杨生,中国,广东,梅州,iPhone 12,月日，美股三大指数集体下跌，截至发稿，道指跌，纳指跌，标普指数跌大型科技股普跌，苹果跌逾，英伟达、谷歌、亚马逊跌幅不足贵金属板块走高，美洲白银公司涨超，泛美白银涨超老虎证券跌超，公司拟增发万股美国存托股票通用汽车股价上涨至，为全文
106,ben笨笨笨笨ben,中国,河南,焦作,小米10,#股票#$金刚光伏$记录
107,张逸轩同学,中国,广东,深圳,微博网页版,胡锡进今晚应该出来了，他股票账户也回本了，老胡是跟我一起进去的！按推算来说，今晚出来
108,短打一生,中国,湖北,武汉,微博网页版,微博新增互动栏目每日股票池投票请多多关注，点赞，转发也欢迎大家第二天早上再来看一眼投票截止明早点说明：股票池会由我先过滤一遍，选出我认为可以的股票池（入选理由公号复盘会有说）票数最高的，第二天会实盘买入也方便大家参考，记得过来看结果不作为投资建议，请用心投全文
109,打板女侠-V,中国,广东,韶关,,晚间上市公司重大事项公告【二】：一、重大事项公告：、金鸿顺：拟筹划资产重组事项股票明起停牌、思瑞浦：创芯微股权已过户完成、因赛集团：筹划重大资产重组股票明起停牌、泸州老窖等亿元于深圳投资成立合伙企业二、重大利好公告：、富信科技：第三季度净利润同比增长全文
110,MARIYN1C_,中国,广东,佛山,Android,费了好大劲，股票终于有点要回本的趋势债券全绿了泪造孽啊，安静让他躺在余额宝不好么
111,单行道_May,中国,湖北,咸宁,iPhone客户端,现在才看繁花虽然我不懂股票但我起码知道最高点肯定不能买入啊我看小江西那样，这剧我都不看敢追了🙈顺便好奇了一下股票，嗯，套路真深雨我无瓜
112,仙居杨梅-山里红,中国,浙江,台州,微博视频号,推荐关注以下股票、唐人神（）强烈推荐（稳定增长完全可预见）、新乡化纤（）、通用股份（）强烈推荐关注（业绩暴增完全可持续）、鲁北化工（仙居杨梅山里红的微博视频
113,谷致远打板,中国,北京,北京,iPhone 14 Pro,大家关心的，点欧菲光和四川长虹谁能成为总龙头？随着最近牛市预期不断增大，大资金不断涌入，东财亿的市值照样连续涨停所以这两天，市场选择了两个新的中等市值股票来做新龙头，那便是四川长虹和欧菲光！那么它们两只票，谁才是下个阶段真正的龙头呢？简单说下自己的看法：、人气热度全文
114,打板女侠-V,中国,广东,韶关,,华为正式发布纯血鸿蒙系统，成为与苹果系统和谷歌安卓系统鼎足并立的第三大操作系统华为概念和华为支付方向的主要股票周二大幅分化调整，短线自主可控的利好兑现，下一个关注华为的方向应放在半导体芯片领域，华为相关概念遇回调应有反复活跃机会机会，此外华为急迫进军的是人工全文
115,何在,中国,北京,北京,微博网页版,#股票##今日看盘##上证指数#《震荡向上有资金转向防御医药》上证指数还是阴阳交错的震荡走势，盘中夹杂不时的跳水：图片从今天表现好的股票来看，有进攻的科技类也有防守型的医药类图片市场一有动荡基本就有资金往防御类里面转长期看医药类的股票即是刚需又有成长性，往往是资金大的价值全文
116,葡萄艺菲,中国,辽宁,沈阳,荣耀80 GT 5G,人生能有几次博现在，普通人想赚大钱，一是彩票，概率是万分之一，适合所有人二是网红主播，概率是万分之一的成功率，最适合本钱少的岁到岁的年龄人，岁到岁的概率更低三是股票，概率是万之一，适合所有人买股票，参考巴非特，不想持有年，不要买入一定要，把每次买全文
117,降龙拾八涨,中国,北京,北京,股票超话,半导体行业最全产业链股票
118,深圳林宇辉,中国,江西,,iPhone 16 Pro,夜已深，关于明日股的行情，我再强调几句，防止有人没有看到：、今天晚上最大的消息就是，社科院金融所报告建议：发行万亿元特别国债支持设立股市平准基金、何为平准基金？就是国家队亲自下场买股票，以确保股市平稳健康运行此消息虽然只是建议，但先吹吹风，把预期拉满、炒股，炒的全文
119,嘉嘉的第六感,中国,广东,韶关,财经超话,利好消息亿元互换便利资金今天开始买股，点将是股牛市新起点：今天股尾盘为何翻红？一看就是国家资金开始拉指数而今天根据中金公司、国泰君安等券商公告，亿元互换便利资金今天开始买股票，估计也卖出了国债所以今天年国债指数，今天也暴跌了只要债基下跌，股市就有源源不全文
120,散户流浪,中国,海南,陵水黎族自治县,微博网页版,为什么现在对股票提不起兴趣？复盘也草草了事，不想多看？只是想在股票上养成一个习惯？有必要不？还是为以后做长线考虑？主要是正反馈太虚无缥缈了，没有期货来的实在！可惜了这么多年学习吃的苦、受的难，甚至把一个业务员变成了程序员，太操蛋了！弄会了又不做了哎，我咋个就这么苦哦！
121,超导少年,中国,江苏,苏州,iPhone 14 Pro,家股公司（其中民企家）公告回购增持再贷款情况，成为继月日晚首批家公司集体公告后的第二批次集中公告，相关公司（用途，贷款额）公告情况如下：安孚科技（增持，万元至万元，集中竞价增持金额由万元调增至不低于万元）；金宏气体（回购，上限万元）；外高桥（增持，不全文
122,打板女侠-V,中国,广东,韶关,,大盘不想跌，但是感觉也冲不上去了普涨普跌的行情结束了板块轮动踏不准的容易左右挨打短线技术不行的还是退出吧虽然指数没涨，但是每天几百亿的资金流出
123,牛春宝,中国,上海,上海,,出手了：据券商中国消息，中金公司于年月日在“证券、基金、保险公司互换便利”项下首次买入股票下一步中金公司将继续使用互换便利业务获得的资金进一步增持股票，坚决落实党中央决策部署，助力资本市场健康稳定发展
124,金索银索,中国,陕西,咸阳,微博网页版,星期二两市成交量亿，红盘家数只，涨停股票只，没有跌停股票，指数低开高走，收小阳线稳定指数还得靠金融券商，券商走好指数稳定，情绪题材继续高歌猛进，午后有部分资金兑现，后排的筹码松动炸板又回封，分歧开始加大，预计明天分歧进一步加大，不可追高，不可迷恋后排，等全文
125,莲子豆豆,中国,湖北,宜昌,微博网页版,月日全球基金净卖出亿卢比印度股票
126,爱吃团团怎么了,中国,江苏,苏州,,++#呼兰开心点#前一阵看到股暴涨有些人挣得盆满钵满我就眼红，但今天看到呼兰在脱友讲自己股暴涨我只想哈哈大笑啊啊啊啊，难道这就是独属于时间差的“笑料”？呼兰前一阵炒股挣到钱，本来想写的段子写到一半，突然股票涨了搞得他大激动，开始改讲自己炒股的事，在台上那叫一个得瑟——“我们主全文
127,打板女侠-V,中国,广东,韶关,,年月日(周二)游资买卖数据汇总知名游资股票涨幅净额呼家楼欧菲光拓维信息中文在线葛卫东力源信息六一路川润股份全文
128,夏林财商,中国,浙江,宁波,,#建议发行万亿国债设立股市平准基金#社科院还在喊平准基金，哎…股票如果真的有价值，国家队都买去不就行了，买去也是为国家储备财富…如果没价值，凭什么去干预市场波动呢，还要以稀释全民货币为成本…在干预的过程中，又会产生多少不公和腐败呢…有一个国家队还不够，还要来第二个，那还要市全文
129,A股大猩猩,中国,广东,佛山,,突发重大利好，平准基金真的要来了吗？社科院建议发行万亿国债设立股市平准基金，发改委则马上表示，年继续发行特别长期国债股市走牛的资金，是不是有戏了？#股票#
130,还有几十年啊,中国,重庆,重庆,iPhone客户端,会省钱会花钱也是一种能力在可控的范围内分配已有资源使其满足自己利益最大化不会算什么股票基金但擅长对于自己生活额度的分配还算蛮有趣的游戏
131,DTinthehouse_,中国,江苏,,iPhone客户端,今天是受到后姐姐们关爱的一天兔子最后跟艳姐去吃饭啦，祝艳姐股票多来几个涨停板求饶
132,lynnjin,中国,上海,上海,iPhone客户端,股票：科创
133,波段狙击手1号,中国,广西,南宁,iPhone客户端,英伟达盘中再破历史新高#财经#财经#股票#股票股票分析股市分析股市
134,A股民帮主,中国,广东,深圳,iPhone客户端,半导体突发利空消息！机构减持，板块短期回调压力加大刚刚传来一条与半导体板块相关的消息：中芯国际公告称，易方达上证科创板减持了公司万股股股票这对本就处于高位震荡的半导体板块来说，显然是一个偏空的信号半导体冲高回落，短线走势尚不确定从昨天的市场表现来看，半导体板全文
135,李轩豪论市,中国,广东,韶关,iPhone 14 Pro,股炒作华为科技概念，一堆垃圾股大涨股炒作人工智能概念，一堆垃圾股大涨股炒作芯片半导体概念，一堆垃圾股大涨，这是目前我国股存在的最大问题，部分机构和散户非常不成熟，放着好公司的股票不买偏偏要买垃圾股，什么是垃圾股，就是长期亏损的，几乎不分红的，一家上市公司，得到全文
136,理性智远2020,中国,江苏,南京,HUAWEI P60,在宝洁年以亿美元收购吉列时，巴菲特通过换股和购买共持有一亿股宝洁股票，以后在年又购买万股，从年起就是一个逐渐退出的过程，这可能和宝洁品牌太多有关，单纯吉列刀片的销售额仅占宝洁销售额的左右到年末减持了接近一半的持仓，根据历年股价推测套现大概多亿美元，在全文
137,大周期趋势,中国,江苏,无锡,微博网页版,余家股上市公司本周披露并购重组最新公告
138,qqerbao158,中国,上海,上海,微博轻享版,如果我重来一次我会做什么赚钱，炒股票，买房子一开始的钱哪里来来自好工作吧什么工作好教育的工作好三十年河东，三十年河西尽快去好行业我关键是行动力差行动起来直接去做
139,我说一切都是缘分吧_,中国,北京,北京,微博网页版,不管是股票还是期货，如果能买在上涨的起点，或是买在下跌的最低点附近，那么后续就能赚钱股道热肠也@股道热肠也转发微博
140,广州楼市思考,中国,广东,广州,房地产超话,住别墅的好处就是可以有一个院子，能安放我们的兴趣和爱好我的爱好是养锦鲤，孩子们的爱好也是养小动物每天清晨起来浇花，除草，喂鱼，晨练，中年生活不过如此！降低对生活的欲望，降低对未来的预期，珍惜当下的每一天！人生中除了投资、理财、资产增值、股票、房产以外，还有更重要的很多事情全文
141,A股民帮主,中国,广东,深圳,iPhone客户端,利好消息亿元互换便利资金今天开始买股，点将是股牛市新起点：今天股尾盘为何翻红？一看就是国家资金开始拉指数而今天根据中金公司、国泰君安等券商公告，亿元互换便利资金今天开始买股票，估计也卖出了国债所以今天年国债指数，今天也暴跌了只要债基下跌，股市就有源源不全文
142,宇非同行,中国,江西,南昌,HUAWEI Mate 60,首单！首单！首单！互换便利（）和回购增持再贷款均有实质性进展月日，中金公司在“证券、基金、保险公司互换便利”项下首次买入股票；国泰君安完成互换便利全市场首单国债换入交易；中银证券落地市场首单大股东增持再贷款证券服务在业内人士看来，两大创新货币政策工具是监管层支全文
143,嘿嘿的光,中国,浙江,金华,iPhone 14,现在白天基本没啥时间看盘了，基本都是白天下班后复盘下，然后有买点第二天开盘买，像股票短线模式和上班冲突，暂时放弃了，目前就买指数基金
144,爱腾社,中国,广东,广州,iPhone客户端,人的精力有限，不可能做短线，又做长线，做震荡，又做趋势，做日内，又做隔夜，又做股票，又做期货选择一个适合自己的方向，长期沉浸，才能赚到行业溢价这个方向最好是更新的、更年轻的、管制更少的
145,宋谈股经,中国,江西,南昌,微博网页版,【二级市场方面，并购重组龙头股双成药业收盘天板录得连板、华立股份连板、光智科技收获连续七个涨停，余家股上市公司本周披露并购重组最新公告！】月日截至发稿，据不完全统计，本周包括禾信仪器、金鸿顺、因赛集团、龙源电力、兴民智通、沈阳机床、四川双马、中英科技、一汽解放全文
